start=new Date('2023-02-03T00:00:00.000Z').valueOf();
sats=[{"PERIOD":"95.592","ELEMENT_SET_NO":"999","APOAPSIS":"548.269","MEAN_MOTION":"15.06398307","EPHEMERIS_TYPE":"0","NORAD_CAT_ID":"47912","BSTAR":"0.00069062000000","GP_ID":"224240144","EPOCH":"2023-02-02T04:52:29.764128","ARG_OF_PERICENTER":"86.2681","OBJECT_ID":"2021-021BE","LAUNCH_DATE":"2021-03-14","RA_OF_ASC_NODE":"311.0552","SEMIMAJOR_AXIS":"6925.354","TLE_LINE2":"2 47912  53.0524 311.0552 0001516  86.2681 273.8481 15.06398307105499","MEAN_MOTION_DOT":"0.00010020","OBJECT_TYPE":"PAYLOAD","OBJECT_NAME":"STARLINK-2372","TLE_LINE1":"1 47912U 21021BE  23033.20312227  .00010020  00000-0  69062-3 0  9998","MEAN_ANOMALY":"273.8481","DECAY_DATE":null,"CLASSIFICATION_TYPE":"U","ECCENTRICITY":"0.00015160","REV_AT_EPOCH":"10549","PERIAPSIS":"546.169","MEAN_ELEMENT_THEORY":"SGP4","INCLINATION":"53.0524","TIME_SYSTEM":"UTC","CENTER_NAME":"EARTH","RCS_SIZE":"LARGE","REF_FRAME":"TEME","MEAN_MOTION_DDOT":"0.0000000000000","COUNTRY_CODE":"US","SITE":"AFETR","FILE":"3768366"},{"ELEMENT_SET_NO":"999","PERIOD":"95.592","APOAPSIS":"548.189","MEAN_MOTION":"15.06395708","EPHEMERIS_TYPE":"0","NORAD_CAT_ID":"47913","BSTAR":"0.00016714000000","GP_ID":"224240896","EPOCH":"2023-02-02T01:52:09.226848","ARG_OF_PERICENTER":"96.7118","OBJECT_ID":"2021-021BF","LAUNCH_DATE":"2021-03-14","RA_OF_ASC_NODE":"322.0997","SEMIMAJOR_AXIS":"6925.362","TLE_LINE2":"2 47913  53.0538 322.0997 0001389  96.7118 263.4029 15.06395708105494","OBJECT_TYPE":"PAYLOAD","MEAN_MOTION_DOT":"0.00002209","DECAY_DATE":null,"TLE_LINE1":"1 47913U 21021BF  23033.07788457  .00002209  00000-0  16714-3 0  9992","MEAN_ANOMALY":"263.4029","OBJECT_NAME":"STARLINK-2374","CLASSIFICATION_TYPE":"U","PERIAPSIS":"546.265","ECCENTRICITY":"0.00013890","REV_AT_EPOCH":"10549","MEAN_ELEMENT_THEORY":"SGP4","INCLINATION":"53.0538","CENTER_NAME":"EARTH","TIME_SYSTEM":"UTC","RCS_SIZE":"LARGE","COUNTRY_CODE":"US","MEAN_MOTION_DDOT":"0.0000000000000","REF_FRAME":"TEME","SITE":"AFETR","FILE":"3768366"},{"OBJECT_TYPE":"PAYLOAD","MEAN_MOTION_DOT":"0.00000861","CLASSIFICATION_TYPE":"U","TLE_LINE1":"1 47914U 21021BG  23033.82606596  .00000861  00000-0  76705-4 0  9998","MEAN_ANOMALY":"261.5130","DECAY_DATE":null,"OBJECT_NAME":"STARLINK-2375","PERIAPSIS":"546.112","REV_AT_EPOCH":"10512","ECCENTRICITY":"0.00015910","MEAN_ELEMENT_THEORY":"SGP4","INCLINATION":"53.0548","RCS_SIZE":"LARGE","TIME_SYSTEM":"UTC","CENTER_NAME":"EARTH","COUNTRY_CODE":"US","MEAN_MOTION_DDOT":"0.0000000000000","REF_FRAME":"TEME","FILE":"3768397","SITE":"AFETR","ELEMENT_SET_NO":"999","PERIOD":"95.592","NORAD_CAT_ID":"47914","APOAPSIS":"548.316","EPHEMERIS_TYPE":"0","MEAN_MOTION":"15.06399907","GP_ID":"224245480","BSTAR":"0.00007670500000","ARG_OF_PERICENTER":"98.6039","EPOCH":"2023-02-02T19:49:32.098944","OBJECT_ID":"2021-021BG","LAUNCH_DATE":"2021-03-14","SEMIMAJOR_AXIS":"6925.349","TLE_LINE2":"2 47914  53.0548 318.2645 0001591  98.6039 261.5130 15.06399907105128","RA_OF_ASC_NODE":"318.2645"},{"FILE":"3768397","SITE":"AFETR","COUNTRY_CODE":"US","REF_FRAME":"TEME","MEAN_MOTION_DDOT":"0.0000000000000","RCS_SIZE":"LARGE","CENTER_NAME":"EARTH","TIME_SYSTEM":"UTC","INCLINATION":"53.0544","MEAN_ELEMENT_THEORY":"SGP4","PERIAPSIS":"546.213","ECCENTRICITY":"0.00014220","REV_AT_EPOCH":"10519","CLASSIFICATION_TYPE":"U","TLE_LINE1":"1 47915U 21021BH  23033.82468590 -.00000035  00000-0  16536-4 0  9999","DECAY_DATE":null,"MEAN_ANOMALY":"253.2976","OBJECT_NAME":"STARLINK-2376","OBJECT_TYPE":"PAYLOAD","MEAN_MOTION_DOT":"-0.00000035","TLE_LINE2":"2 47915  53.0544 313.2703 0001422 106.8169 253.2976 15.06405220105193","SEMIMAJOR_AXIS":"6925.333","RA_OF_ASC_NODE":"313.2703","LAUNCH_DATE":"2021-03-14","OBJECT_ID":"2021-021BH","ARG_OF_PERICENTER":"106.8169","EPOCH":"2023-02-02T19:47:32.861760","GP_ID":"224245470","BSTAR":"0.00001653600000","NORAD_CAT_ID":"47915","APOAPSIS":"548.182","EPHEMERIS_TYPE":"0","MEAN_MOTION":"15.06405220","ELEMENT_SET_NO":"999","PERIOD":"95.592"},{"EPOCH":"2023-02-02T01:38:47.766624","ARG_OF_PERICENTER":"102.8224","OBJECT_ID":"2021-021BJ","LAUNCH_DATE":"2021-03-14","RA_OF_ASC_NODE":"301.6657","SEMIMAJOR_AXIS":"6925.353","TLE_LINE2":"2 47916  53.0542 301.6657 0001380 102.8224 257.2919 15.06398651105754","PERIOD":"95.592","ELEMENT_SET_NO":"999","EPHEMERIS_TYPE":"0","APOAPSIS":"548.173","MEAN_MOTION":"15.06398651","NORAD_CAT_ID":"47916","BSTAR":"0.00002362800000","GP_ID":"224240644","INCLINATION":"53.0542","TIME_SYSTEM":"UTC","CENTER_NAME":"EARTH","RCS_SIZE":"LARGE","COUNTRY_CODE":"US","MEAN_MOTION_DDOT":"0.0000000000000","REF_FRAME":"TEME","SITE":"AFETR","FILE":"3768366","OBJECT_TYPE":"PAYLOAD","MEAN_MOTION_DOT":"0.00000070","TLE_LINE1":"1 47916U 21021BJ  23033.06860841  .00000070  00000-0  23628-4 0  9999","MEAN_ANOMALY":"257.2919","DECAY_DATE":null,"OBJECT_NAME":"STARLINK-2378","CLASSIFICATION_TYPE":"U","PERIAPSIS":"546.262","ECCENTRICITY":"0.00013800","REV_AT_EPOCH":"10575","MEAN_ELEMENT_THEORY":"SGP4"},{"ELEMENT_SET_NO":"999","PERIOD":"95.592","GP_ID":"224240397","BSTAR":"0.00000843970000","NORAD_CAT_ID":"47917","APOAPSIS":"548.124","EPHEMERIS_TYPE":"0","MEAN_MOTION":"15.06399033","OBJECT_ID":"2021-021BK","ARG_OF_PERICENTER":"100.0428","EPOCH":"2023-02-02T04:59:09.803040","TLE_LINE2":"2 47917  53.0563 311.0367 0001311 100.0428 260.0709 15.06399033105621","SEMIMAJOR_AXIS":"6925.352","RA_OF_ASC_NODE":"311.0367","LAUNCH_DATE":"2021-03-14","CLASSIFICATION_TYPE":"U","OBJECT_NAME":"STARLINK-2397","MEAN_ANOMALY":"260.0709","TLE_LINE1":"1 47917U 21021BK  23033.20775235 -.00000156  00000-0  84397-5 0  9995","DECAY_DATE":null,"MEAN_MOTION_DOT":"-0.00000156","OBJECT_TYPE":"PAYLOAD","MEAN_ELEMENT_THEORY":"SGP4","ECCENTRICITY":"0.00013110","REV_AT_EPOCH":"10562","PERIAPSIS":"546.309","RCS_SIZE":"LARGE","TIME_SYSTEM":"UTC","CENTER_NAME":"EARTH","INCLINATION":"53.0563","FILE":"3768366","SITE":"AFETR","REF_FRAME":"TEME","MEAN_MOTION_DDOT":"0.0000000000000","COUNTRY_CODE":"US"},{"CLASSIFICATION_TYPE":"U","TLE_LINE1":"1 47918U 21021BL  23033.14877599 -.00000541  00000-0 -17404-4 0  9998","MEAN_ANOMALY":"247.4853","DECAY_DATE":null,"OBJECT_NAME":"STARLINK-2398","OBJECT_TYPE":"PAYLOAD","MEAN_MOTION_DOT":"-0.00000541","MEAN_ELEMENT_THEORY":"SGP4","PERIAPSIS":"546.092","REV_AT_EPOCH":"10564","ECCENTRICITY":"0.00016000","RCS_SIZE":"LARGE","TIME_SYSTEM":"UTC","CENTER_NAME":"EARTH","INCLINATION":"53.0559","FILE":"3768366","SITE":"AFETR","COUNTRY_CODE":"US","REF_FRAME":"TEME","MEAN_MOTION_DDOT":"0.0000000000000","ELEMENT_SET_NO":"999","PERIOD":"95.592","GP_ID":"224239157","BSTAR":"-0.00001740400000","NORAD_CAT_ID":"47918","EPHEMERIS_TYPE":"0","APOAPSIS":"548.308","MEAN_MOTION":"15.06404365","OBJECT_ID":"2021-021BL","ARG_OF_PERICENTER":"112.6305","EPOCH":"2023-02-02T03:34:14.245536","TLE_LINE2":"2 47918  53.0559 311.3072 0001600 112.6305 247.4853 15.06404365105643","SEMIMAJOR_AXIS":"6925.335","RA_OF_ASC_NODE":"311.3072","LAUNCH_DATE":"2021-03-14"},{"TLE_LINE1":"1 47919U 21021BM  23033.13311115  .00002197  00000-0  16631-3 0  9992","MEAN_ANOMALY":"264.3376","DECAY_DATE":null,"OBJECT_NAME":"STARLINK-2405","CLASSIFICATION_TYPE":"U","OBJECT_TYPE":"PAYLOAD","MEAN_MOTION_DOT":"0.00002197","MEAN_ELEMENT_THEORY":"SGP4","PERIAPSIS":"546.205","ECCENTRICITY":"0.00014360","REV_AT_EPOCH":"10548","CENTER_NAME":"EARTH","TIME_SYSTEM":"UTC","RCS_SIZE":"LARGE","INCLINATION":"53.0536","SITE":"AFETR","FILE":"3768366","COUNTRY_CODE":"US","REF_FRAME":"TEME","MEAN_MOTION_DDOT":"0.0000000000000","PERIOD":"95.592","ELEMENT_SET_NO":"999","BSTAR":"0.00016631000000","GP_ID":"224239903","APOAPSIS":"548.194","MEAN_MOTION":"15.06404577","EPHEMERIS_TYPE":"0","NORAD_CAT_ID":"47919","OBJECT_ID":"2021-021BM","EPOCH":"2023-02-02T03:11:40.803360","ARG_OF_PERICENTER":"95.7776","RA_OF_ASC_NODE":"321.3783","TLE_LINE2":"2 47919  53.0536 321.3783 0001436  95.7776 264.3376 15.06404577105484","SEMIMAJOR_AXIS":"6925.335","LAUNCH_DATE":"2021-03-14"},{"ELEMENT_SET_NO":"999","PERIOD":"95.592","NORAD_CAT_ID":"47977","APOAPSIS":"548.151","EPHEMERIS_TYPE":"0","MEAN_MOTION":"15.06397470","GP_ID":"224240650","BSTAR":"0.00001580200000","ARG_OF_PERICENTER":"91.6997","EPOCH":"2023-02-02T08:10:54.503904","OBJECT_ID":"2021-024A","LAUNCH_DATE":"2021-03-24","TLE_LINE2":"2 47977  53.0539   5.4468 0001343  91.6997 268.4145 15.06397470104186","SEMIMAJOR_AXIS":"6925.356","RA_OF_ASC_NODE":"5.4468","OBJECT_TYPE":"PAYLOAD","MEAN_MOTION_DOT":"-0.00000046","CLASSIFICATION_TYPE":"U","DECAY_DATE":null,"TLE_LINE1":"1 47977U 21024A   23033.34090861 -.00000046  00000-0  15802-4 0  9996","MEAN_ANOMALY":"268.4145","OBJECT_NAME":"STARLINK-2087","PERIAPSIS":"546.291","ECCENTRICITY":"0.00013430","REV_AT_EPOCH":"10418","MEAN_ELEMENT_THEORY":"SGP4","INCLINATION":"53.0539","RCS_SIZE":"LARGE","TIME_SYSTEM":"UTC","CENTER_NAME":"EARTH","COUNTRY_CODE":"US","MEAN_MOTION_DDOT":"0.0000000000000","REF_FRAME":"TEME","FILE":"3768366","SITE":"AFETR"},{"CLASSIFICATION_TYPE":"U","TLE_LINE1":"1 47978U 21024B   23033.36210175  .00006640  00000-0  46416-3 0  9990","DECAY_DATE":null,"MEAN_ANOMALY":"265.9820","OBJECT_NAME":"STARLINK-1647","OBJECT_TYPE":"PAYLOAD","MEAN_MOTION_DOT":"0.00006640","MEAN_ELEMENT_THEORY":"SGP4","PERIAPSIS":"546.107","REV_AT_EPOCH":"10404","ECCENTRICITY":"0.00015810","RCS_SIZE":"LARGE","CENTER_NAME":"EARTH","TIME_SYSTEM":"UTC","INCLINATION":"53.0546","FILE":"3768366","SITE":"AFETR","COUNTRY_CODE":"US","REF_FRAME":"TEME","MEAN_MOTION_DDOT":"0.0000000000000","PERIOD":"95.592","ELEMENT_SET_NO":"999","GP_ID":"224240403","BSTAR":"0.00046416000000","NORAD_CAT_ID":"47978","MEAN_MOTION":"15.06403861","APOAPSIS":"548.297","EPHEMERIS_TYPE":"0","OBJECT_ID":"2021-024B","ARG_OF_PERICENTER":"94.1350","EPOCH":"2023-02-02T08:41:25.591200","SEMIMAJOR_AXIS":"6925.337","TLE_LINE2":"2 47978  53.0546  15.3475 0001581  94.1350 265.9820 15.06403861104047","RA_OF_ASC_NODE":"15.3475","LAUNCH_DATE":"2021-03-24"}];
